[{"OBJECT_NAME":"IRIDIUM 151","OBJECT_ID":"2017-083E","EPOCH":"2026-03-09T21:03:19.137312","MEAN_MOTION":14.34219156,"ECCENTRICITY":0.00022172,"INCLINATION":86.4026,"RA_OF_ASC_NODE":3.558,"ARG_OF_PERICENTER":86.5929,"MEAN_ANOMALY":273.552,"EPHEMERIS_TYPE":0,"CLASSIFICATION_TYPE":"U","NORAD_CAT_ID":43074,"ELEMENT_SET_NO":999,"REV_AT_EPOCH":42990,"BSTAR":0.00015053451,"MEAN_MOTION_DOT":4.41e-6,"MEAN_MOTION_DDOT":0},{"OBJECT_NAME":"CZ-6A DEB","OBJECT_ID":"2022-151ACQ","EPOCH":"2026-03-09T07:36:26.995968","MEAN_MOTION":14.33854436,"ECCENTRICITY":0.00143038,"INCLINATION":98.7637,"RA_OF_ASC_NODE":92.8093,"ARG_OF_PERICENTER":167.0057,"MEAN_ANOMALY":193.1499,"EPHEMERIS_TYPE":0,"CLASSIFICATION_TYPE":"U","NORAD_CAT_ID":56272,"ELEMENT_SET_NO":999,"REV_AT_EPOCH":15307,"BSTAR":0.0022400264,"MEAN_MOTION_DOT":6.202e-5,"MEAN_MOTION_DDOT":0}]
